{"fetched_at":"2026-03-29T16:36:15Z","count":15609,"tles":[{"name":"ONEWEB-0679","line1":"1 56715U 23068F   26087.91489197 -.00000011  00000+0 -62277-4 0  9995","line2":"2 56715  87.9041 244.7203 0001109 100.0623 260.0633 13.16594980141169","category":"Other"}]}